ADDRESS_1|ADDRESS_2|CITY_NAME|STATE_CODE|ZIPCODE
8500 210TH ST W STE 156|?|LAKEVILLE|MN|55044
16023 ELMHURST LN STE 103|?|LAKEVILLE|MN|55044
17599 KENWOOD TRL STE 7|?|LAKEVILLE|MN|55044
9483 208TH ST W|?|LAKEVILLE|MN|55044
7634 160TH ST W|?|LAKEVILLE|MN|55044
20157 ICENIC TRAIL|?|LAKEWOOD|MN|55044
20094 KENWOOD TR W|?|LAKEVILLE|MN|55044
20730 HOLYOKE AVE STE 146|?|LAKEVILLE|MN|55044
7560 160TH ST W STE 100|?|LAKEVILLE|MN|55044
11098 164TH ST WEST|?|LAKEVILLE|MN|55044
20520 KEOKUK AVE # LL80|?|LAKEVILLE|MN|55044
17787 KENWOOD TRAIL|?|LAKEVILLE|MN|55044
17595 KENWOOD TRAIL #100|?|LAKEVILLE|MN|55044
8500 210TH ST W STE 140|?|LAKEVILLE|MN|55044
10438 185TH ST W STE 100|?|LAKEVILLE|MN|55044
10603 165TH ST W|?|LAKEVILLE|MN|55044
19950 DOBB RD STE 102|?|LAKEVILLE|MN|55044
17595 KENWOOD TRAIL STE 100|?|LAKEVILLE|MN|55044
19950 DODD BLVD STE 103|?|LAKEVILLE|MN|55044
17502 DODD BLVD|?|LAKEVILLE|MN|55044
P.O. BOX 310|20785 HOLYOKE AVENUE|LAKEVILLE|MN|55044
16372 KENRICK AVE|?|LAKEVILLE|MN|55044
PO BOX 565|?|LAKEVILLE|MN|55044
9740 172ND ST W|?|LAKEVILLE|MN|55044
17665 KENWOOD TRL|?|LAKEVILLE|MN|55044
17595 KENWOOD TRAIL SUITE 100|?|LAKEVILLE|MN|55044
7644 160TH ST W|?|LAKEVILLE|MN|55044
17599 KENWOOD TRL STE 2|?|LAKEVILLE|MN|55044
16301 KENRICK AVE|?|LAKEVILLE|MN|55044
10535 165TH ST W STE A|?|LAKEVILLE|MN|55044
SUITE 3|17599 KENWOOD TRAIL|LAKEVILLE|MN|55044
16372 KENRICK AVE STE 210|?|LAKEVILLE|MN|55044
16372 KENRICK AVE STE 250|?|LAKEVILLE|MN|55044
18449 ORCHARD TRL|?|LAKEVILLE|MN|55044
18572 JOPLIN AVE|?|LAKEVILLE|MN|55044
11276 W 210TH ST STE 104|?|LAKEVILLE|MN|55044
17890 IRONS CT|?|LAKEVILLE|MN|55044
20711 HOLT AVE UNIT 654|?|LAKEVILLE|MN|55044
18480 KENYON AVE|?|LAKEVILLE|MN|55044
17411 IONIA PATH|?|LAKEVILLE|MN|55044
20171 ICENIC TRAIL|?|LAKEVILLE|MN|55044
7580 160TH STREET W|?|LAKEVILLE|MN|55044
TARGET OPTICAL|18275 KENDRICH AVE|LAKEVILLE|MN|55044
STE 7|17599 KENWOOD TRAIL|LAKEVILLE|MN|55044
9882 UPPER 173RD CT W|?|LAKEVILLE|MN|55044
17756 KENWOOD TRL|?|LAKEVILLE|MN|55044
20171 ICENIC TRAIL W|?|LAKEVILLE|MN|55044
8715 208TH STREET W., BOX 951|?|LAKEVILLE|MN|55044
18592 JOPLIN AVE|?|LAKEVILLE|MN|55044
20171 ICENIC TRL|?|LAKEVILLE|MN|55044
20157 ICENIC TRIAIL|?|LAKEVILLE|MN|55044
20629 HARTFORD WAY|?|LAKEVILLE|MN|55044
17302 IPSWICH WAY|?|LAKEVILLE|MN|55044
16372 KENRICK AVE STE 200|?|LAKEVILLE|MN|55044
P.O. BOX 847|20074 KENWOOD TRAIL|LAKEVILLE|MN|55044
11276 W 210TH ST W STE 104|?|LAKEVILLE|MN|55044
17305 CEDAR AVE S STE 230|?|LAKEVILLE|MN|55044
18584 JOPLIN AVE|?|LAKEVILLE|MN|55044
PO BOX 847|20074 KENWOOD TRAIL|LAKEVILLE|MN|55044
18425 DODD BLVD|?|LAKEVILLE|MN|55044
20195 HOLYOKE AVE|?|LAKEVILLE|MN|55044
9974 214TH ST W                     |                                    |LAKEVILLE                |MN|55044
17504 DODD BLVD|?|LAKEVILLE|MN|55044
STE 120|10880 175TH ST W|LAKEVILLE|MN|55044
17787 KENWOOD TRL|?|LAKEVILLE|MN|55044
20855 KENSINGTON BLVD|?|LAKEVILLE|MN|55044
20074 KENWOOD TRAIL, BOX 847|?|LAKEVILLE|MN|55044
17773 KENWOOD TRL|?|LAKEVILLE|MN|55044
16283 IPAVA AVE|?|LAKEVILLE|MN|55044
7560 160TH ST W SUITE 100|?|LAKEVILLE|MN|55044
17597 CEDAR AVE|?|LAKEVILLE|MN|55044
20094 KENWOOD TRL W|?|LAKEVILLE|MN|55044
21034 HERON WAY STE 101|?|LAKEVILLE|MN|55044
17746 KENWOOD TRL|?|LAKEVILLE|MN|55044
16260 GLEN OAKS ROAD|?|LAKEVILLE|MN|55044
18586 JOPLIN AVE|?|LAKEVILLE|MN|55044
17305 CEDAR AVE STE 100|?|LAKEVILLE|MN|55044
PO BOX 957|?|LAKEVILLE|MN|55044
18432 KENRICK AVE|?|LAKEVILLE|MN|55044
10450 185TH ST W STE 500|?|LAKEVILLE|MN|55044
8755 UPPER 208TH ST W|?|LAKEVILLE|MN|55044
STE 2|17599 KENWOOD TRL|LAKEVILLE|MN|55044
PO BOX 1135|8755 UPPER 208TH STREET WEST|LAKEVILLE|MN|55044
12400 210TH ST W|?|LAKEVILLE|MN|55044
PO BOX 1135|8755 UPPER 208TH WEST|LAKEVILLE|MN|55044
11276 210TH ST W STE 109|?|LAKEVILLE|MN|55044
STE 102|17400 KENWOOD TRL|LAKEVILLE|MN|55044
8500 210TH ST W|?|LAKEVILLE|MN|55044
75807650 160TH ST W|?|LAKEVILLE|MN|55044
11276 210TH ST W STE 104|?|LAKEVILLE|MN|55044
16659 KENTUCKY AVE|?|LAKEVILLE|MN|55044
8491 172ND ST W|?|LAKEVILLE|MN|55044
17599 KENWOOD TRL                   |                                    |LAKEVILLE                |MN|55044
17725 KENWOOD TRL STE 3|?|LAKEVILLE|MN|55044
17722 KENWOOD TRL|?|LAKEVILLE|MN|55044
20730 HOLYOKE AVE STE 34|?|LAKEVILLE|MN|55044
STATE HWY 50|?|LAKEVIEW|MN|55044
11891 168TH ST W|?|LAKEVILLE|MN|55044
17592 DODD BLVD|?|LAKEVILLE|MN|55044
10450 185TH ST W STE 300|?|LAKEVILLE|MN|55044
20143 IDEALIC AVE STE 105|?|LAKEVILLE|MN|55044
8343 210TH ST W|?|LAKEVILLE|MN|55044
8500 210TH STREET, #156|?|LAKEVILLE|MN|55044
20710 KEOKUK AVE|?|LAKEVILLE|MN|55044
17599 KENWOOD TR|?|LAKEVILLE|MN|55044
16106 PILOT KNOB RD STE 120|?|LAKEVILLE|MN|55044
18476 KENRICK AVE STE 201|?|LAKEVILLE|MN|55044
10440 185TH S T|?|LAKEVILLE|MN|55044
10482 185TH ST W|?|LAKEVILLE|MN|55044
23765 TEXAS AVE|?|LAKEVILLE|MN|55044
10450 185ST W|?|LAKEVILLE|MN|55044
10591 165TH ST W|?|LAKEVILLE|MN|55044
8715 208TH STREET, PO BOX #417|?|LAKEVILLE|MN|55044
8500 - 210 STREET WEST|?|LAKEVILLE|MN|55044
16233 KENYON AVE STE 230|?|LAKEVILLE|MN|55044
STE 104|11276 W 210TH ST|LAKEVILLE|MN|55044
20730 HOLYOKE AVE STE 24|?|LAKEVILLE|MN|55044
8500 210TH STREET WEST|?|LAKEVILLE|MN|55044
10597 165TH ST W|?|LAKEVILLE|MN|55044
17599 KENWOOD TRL|?|LAKEVILLE|MN|55044
17305 CEDAR AVE S STE 250|?|LAKEVILLE|MN|55044
PO BOX 154|?|LAKEVILLE|MN|55044
10440 185TH ST W STE 200|?|LAKEVILLE|MN|55044
16150 PILOT KNOB RD|?|LAKEVILLE|MN|55044
16372 KENRICK AVE STE 100|?|LAKEVILLE|MN|55044
10535 165TH ST W|?|LAKEVILLE|MN|55044
16005 JOPLIN AVE|?|LAKEVILLE|MN|55044
PO BOX 310|?|LAKEVILLE|MN|55044
18472 KENYON AVE|?|LAKEVILLE|MN|55044
17305 CEDAR AVE S # SULTE230|?|LAKEVILLE|MN|55044
17305 CEDAR AVE S STE 100|?|LAKEVILLE|MN|55044
20795 KEOKUK AVE|?|LAKEVILLE|MN|55044
20074 KENWOOD TRAIL|?|LAKEVILLE|MN|55044
XXPXOXXBOXX957XX|?|LAKEVILLE|MI|55044
11276 W 210TH ST STE 109|?|LAKEVILLE|MN|55044
16233 KENYON AVE STE 200|?|LAKEVILLE|MN|55044
17305 CEDAR AVE S|STE 220|LAKEVILLE|MN|55044
X10345 XW X170TH|?|LAKEVILLE|OK|55044
10503 165TH ST W STE 100|?|LAKEVILLE|MN|55044
20520 KEOKUK AVE STE 180|?|LAKEVILLE|MN|55044
17630 KENWOOD TRL|?|LAKEVILLE|MN|55044
17645 JUNIPER PATH STE 155|?|LAKEVILLE|MN|55044
20785 HOLYOKE, P.O. BOX 310|?|LAKEVILLE|MN|55044
8500 210TH STREET WEST STE 118|?|LAKEVILLE|MN|55044
17400 KENWOOD TRL STE 104|?|LAKEVILLE|MN|55044
PO BOX 932|?|LAKEVILLE|MN|55044
STE 200|10440 185TH ST W|LAKEVILLE|MN|55044
7598 160TH ST W|?|LAKEVILLE|MN|55044
17316 KENYON AVE STE 102|?|LAKEVILLE|MN|55044
8500 210TH ST W STE 146|?|LAKEVILLE|MN|55044
20751 HOLYOKE AVE W|?|LAKEVILLE|MN|55044
8500 210 STREET WEST|?|LAKEVILLE|MN|55044
18580 JOPLIN AVE STE 300|?|LAKEVILLE|MN|55044
PO BOX 847|20094 KENWOOD TRAIL|LAKEVILLE|MN|55044
10047 UPPER 205TH ST W|?|LAKEVILLE|MN|55044
17578 DODD BLVD|?|LAKEVILLE|MN|55044
19950 DODD BLVD STE 102|?|LAKEVILLE|MN|55044
10173 167TH ST WEST W|?|LAKEVILLE|MN|55044
17760 LAYTON PATH|?|LAKEVILLE|MN|55044
10535 166TH ST W|?|LAKEVILLE|MN|55044
17757 JUNIPER PASS|?|LAKEVILLE|MN|55044
20710 HOLYOKE AVE|PO BOX 244|LAKEVILLE|MN|55044
20176 HERITAGE DR|?|LAKEVILLE|MN|55044
8500 - 210TH STREET WEST|?|LAKEVILLE|MN|55044
10482 185TH STREET WEST|?|LAKEVILLE|MN|55044
20730 HOLYOKE AVE STE 125|?|LAKEVILLE|MN|55044
20186 HERITAGE DR|?|LAKEVILLE|MN|55044
10440 185TH ST W STE 300|?|LAKEVILLE|MN|55044
20094 KENWOOD TRL PO BOX 847|?|LAKEVILLE|MN|55044
20520 KEOKUK AVE STE LL30|?|LAKEVILLE|MN|55044
PO BOX 244|?|LAKEVILLE|MN|55044
20171 ICENIC TRAIL WEST|?|LAKEVILLE|MN|55044
10173 167TH ST W|?|LAKEVILLE|MN|55044
20785 HOLYOKE AVE|?|LAKEVILLE|MN|55044
20752 GEMINI TRL|?|LAKEVILLE|MN|55044
20772 HOLYOKE AVE|?|LAKEVILLE|MN|55044
10450 185TH ST W STE 200|?|LAKEVILLE|MN|55044
17305 CEDAR AVE S STE 220|?|LAKEVILLE|MN|55044
9202 202ND ST W STE 203|?|LAKEVILLE|MN|55044
16350 KENRICK LOOP STE E|?|LAKEVILLE|MN|55044
18576 JOPLIN AVE|?|LAKEVILLE|MN|55044
18488 KENYON AVE|?|LAKEVILLE|MN|55044
19925 IDEALIC AVE|?|LAKEVILLE|MN|55044
20520 KEOKUK AVE STE 104|?|LAKEVILLE|MN|55044
10482 WEST 185TH STREET|?|LAKEVILLE|MN|55044
17685 JUNIPER PATH STE 205|?|LAKEVILLE|MN|55044
7435 179TH ST W|?|LAKEVILLE|MN|55044
16350 KENRICK LOOP|?|LAKEVILLE|MN|55044
18484 KACHINA CT|?|LAKEVILLE|MN|55044
17787 KENWOOD TRL STE 102|?|LAKEVILLE|MN|55044
16599 HORIZON AVE|?|LAKEVILLE|MN|55044
10609 165TH ST W|?|LAKEVILLE|MN|55044
20074 KENWOOD TRAIL WEST|?|LAKEVILLE|MN|55044
17029 GRENADIER AVE|?|LAKEVILLE|MN|55044
16152 GOODVIEW CIRCLE|?|LAKEVILLE|MN|55044
9202 202ND ST W|?|LAKEVILLE|MN|55044
17757 JUNIPER PATH|?|LAKEVILLE|MN|55044
26676 PILLSBURY AVENUE|?|LAKEVILLE|MN|55044
20697 FROST CT|?|LAKEVILLE|MN|55044
17652 KENWOOD TRL|?|LAKEVILLE|MN|55044
8500 210TH STREET W|?|LAKEVILLE|MN|55044
17595 KENWOOD TRL STE 210|?|LAKEVILLE|MN|55044
20751 HOLYOKE AVE|?|LAKEVILLE|MN|55044
17595 KENWOOD TRAIL STE 140|?|LAKEVILLE|MN|55044
20520 KEOKUK AVE|STE 104|LAKEVILLE|MN|55044
20726 IBEX AVE|?|LAKEVILLE|MN|55044
17364 INLAND LOOP|?|LAKEVILLE|MN|55044
17400 KENWOOD TRAIL WEST|?|LAKEVILLE|MN|55044
20074 KENWOOD TRL W|?|LAKEVILLE|MN|55044
9974 214TH ST W|?|LAKEVILLE|MN|55044
PO BOX 338|?|LAKEVILLE|MN|55044
9202 202ND ST W STE 202|?|LAKEVILLE|MN|55044
17400 KENWOOD TRL STE 1|?|LAKEVILLE|MN|55044
18275 KENRICK AVE|?|LAKEVILLE|MN|55044
PO BOX 1001|?|LAKEVILLE|MN|55044
11276W 210TH ST W STE 104|?|LAKEVILLE|MN|55044
17595 KENWOOD TRL STE 190|?|LAKEVILLE|MN|55044
10651 165TH ST W|?|LAKEVILLE|MN|55044
17697 KENWOOD TRL|?|LAKEVILLE|MN|55044
17436 KENWOOD TRL|?|LAKEVILLE|MN|55044
17510 DODD BLVD|?|LAKEVILLE|MN|55044
PO BOX 1085|?|LAKEVILLE|MN|55044
20711 HOLT AVE UNIT 68|?|LAKEVILLE|MN|55044
10450 185TH ST W|?|LAKEVILLE|MN|55044
20055 HOYA COURT|?|LAKEVILLEE|MN|55044
17799 KENWOOD TRL|?|LAKEVILLE|MN|55044
20751 HOLYOKE AVE. W.|?|LAKEVILLE|MN|55044
17690 KENWOOD TRL|?|LAKEVILLE|MN|55044
17400 KENWOOD TRL STE 102|?|LAKEVILLE|MN|55044
17599 KENWOOD TRAIL, #7|?|LAKEVILLE|MN|55044
17595 KENWOOD TRAIL, #100|?|LAKEVILLE|MN|55044
10450 W 185TH ST|?|LAKEVILLE|MN|55044
10880 175TH CT W STE 120|?|LAKEVILLE|MN|55044
10920 175TH CT W|?|LAKEVILLE|MN|55044
20074 KENWOOD TRAIL W.|?|LAKEVILLE|MN|55044
17305 CEDAR AVE S|?|LAKEVILLE|MN|55044
10051 165TH ST W|?|LAKEVILLE|MN|55044
17599 KENWOOD TRAIL|?|LAKEVILLE|MN|55044
8670 210TH ST W|?|LAKEVILLE|MN|55044
16233 KENYON AVE STE 125|?|LAKEVILLE|MN|55044
20195 HOLYOKE AVENUE|?|LAKEVILLE|MN|55044
18341 ORCHARD TRL|?|LAKEVILLE|MN|55044
17677 CEDAR AVE|?|LAKEVILLE|MN|55044
STE 200|16372 KENRICK AVE|LAKEVILLE|MN|55044
10440 185TH ST W|?|LAKEVILLE|MN|55044
7560 160TH ST W|?|LAKEVILLE|MN|55044
17600 CEDAR AVE|?|LAKEVILLE|MN|55044
18580 JOPLIN AVE|?|LAKEVILLE|MN|55044
STE E|16350 KENRICK LOOP|LAKEVILLE|MN|55044
10657 165TH ST W|?|LAKEVILLE|MN|55044
10880 175TH CT STE 120|?|LAKEVILLE|MN|55044
19950 DODD BLVD STE 109|?|LAKEVILLE|MN|55044
20751 HOLYOKE AVE W BOX 808|?|LAKEVILLE|MN|55044
20752 GEMINI TRAIL|?|LAKEVILLE|MN|55044
10535 165TH ST W STE B|?|LAKEVILLE|MN|55044
20150 HIGHVIEW AVE|?|LAKEVILLE|MN|55044
17811 KENWOOD TRL|?|LAKEVILLE|MN|55044
8755 UPPER 208TH WEST|?|LAKEVILLE|MN|55044
20157 ICENIC TRAIL|?|LAKEVILLE|MN|55044
20561 JADE CIR|?|LAKEVILLE|MN|55044
10551 165TH ST W|?|LAKEVILLE|MN|55044
17400 KENWOOD TRL|?|LAKEVILLE|MN|55044
9202 202ND ST W STE 201|?|LAKEVILLE|MN|55044
20055 HOYA CT|?|LAKEVILLE|MN|55044
20732 HOLT AVE|?|LAKEVILLE|MN|55044
7580 160TH ST W|?|LAKEVILLE|MN|55044
10591 165TH ST W                    |                                    |LAKEVILLE                |MN|55044
18484 KACHINA COURT|?|LAKEVILLE|MN|55044
8755 UPPER 208TH WEST,BOX 1135|?|LAKEVILLE|MN|55044
9850 163RD ST W|?|LAKEVILLE|MN|55044
17595 KENWOOD TRL STE 140|?|LAKEVILLE|MN|55044
STE 7|17599 KENWOOD TRL|LAKEVILLE|MN|55044
20157 ICEMIC TRAIL|?|LAKEVILLE|MN|55044
10880 175TH ST W STE 120|?|LAKEVILLE|MN|55044
20094 KENWOOD TRL|PO BOX 847|LAKEVILLE|MN|55044
PO BOX 847|?|LAKEVILLE|MN|55044
17697 KENWOOD TRI|?|LAKEVILLE|MN|55044
20520 KEOKUK AVE STE 130|?|LAKEVILLE|MN|55044
9050 212TH ST W|?|LAKEVILLE|MN|55044
20250 HERITAGE DR|?|LAKEVILLE|MN|55044
8755 UPPER 208 STREET WEST|?|LAKEVILLE|MN|55044
18476 KENRICK AVE STE 214|?|LAKEVILLE|MN|55044
17645 JUNIPER PATH|?|LAKEVILLE|MN|55044
4755 UPPER 208TH STREET WEST|?|LAKEVILLE|MN|55044
20174 HERITAGE DR|?|LAKEVILLE|MN|55044
17595 KENWOOD TRL STE 100|?|LAKEVILLE|MN|55044
17500 KENWOOD TRL|?|LAKEVILLE|MN|55044
17400 KENWOOD TRAIL STE 102|?|LAKEVILLE|MN|55044
20157 ICENIC TRL|?|LAKEVILLE|MN|55044
20094 KENWOOD TRL|?|LAKEVILLE|MN|55044
10335 165TH ST W|?|LAKEVILLE|MN|55044
20520 KEOKUK AVE # LL30|?|LAKEVILLE|MN|55044
20094 KENWOOD TRL W|PO BOX 847|LAKEVILLE|MN|55044
